LIZZIESAT-1 (LS-1)      
1 59132U 24043AL  26068.89230471  .00005784  00000+0  22329-3 0  9993
2 59132  97.5461 203.4772 0009923 229.9925 130.0443 15.26635711111780
STARLINK-32635          
1 62155U 24224S   26068.30572861  .00025123  00000+0  91924-3 0  9997
2 62155  42.9992 167.8490 0000431 242.1694 117.9114 15.27584108 72179
